#dP2026  5 22  0  0  0.00000000     289 d+D   IGc20 FIT AIUB
## 2419 432000.00000000   300.00000000 61182 0.0000000000000
+  116   G01G02G03G04G05G06G07G08G09G10G11G12G13G14G15G16G17
+        G18G19G20G21G22G23G24G25G26G27G28G29G30G31G32R02R03
+        R04R05R06R07R08R09R11R12R14R15R16R17R18R19R20R21R22
+        R24R26E02E03E04E05E06E07E08E09E10E11E12E13E14E15E16
+        E18E19E21E23E25E26E27E28E29E30E31E32E33E34E36C06C07
+        C08C11C12C13C14C19C20C21C22C23C24C25C26C27C28C29C30
+        C31C32C33C34C35C36C37C38C39C41C42J02J03J04  0  0  0
++         5  5  5  5  5  5  5  5  5  5  5  5  5  5  5  5  5
++         5  5  5  5  5  5  5  5  5  5 10  5  5  5  5  5  5
++         5  5  5  5  5  5  5  5  5  5  5  5  5  5  5  5  5
++         5  5  5  5  5  5  5  5  5  5  5  5  5  5  5  5  5
++         5  5  5  5  5  5  5  5  5  5  5  5  5  5  5  5  5
++         5  5  5  5  5  5  5  5  5  5  5  5  5  5  5  5  5
++         5  5  5  5  5  5  5  5  5  5  5  5  5  5  0  0  0
%c M  cc GPS ccc cccc cccc cccc cccc ccccc ccccc ccccc ccccc
%c cc cc ccc ccc cccc cccc cccc cccc ccccc ccccc ccccc ccccc
%f  1.2500000  1.025000000  0.00000000000  0.000000000000000
%f  0.0000000  0.000000000  0.00000000000  0.000000000000000
%i    0    0    0    0      0      0      0      0         0
%i    0    0    0    0      0      0      0      0         0
/* Center for Orbit Determination in Europe (CODE)                              
/* MGEX orbits and clocks for year-day 2026-1420                                
/* Middle day of a 3-day long-arc multi-GNSS solution                           
/* Systems considered: GPS/GLONASS/Galileo/BeiDou/QZSS                          
/* Product reference - DOI 10.48620/97775                                       
/* PCV:IGS20_2417 OL/AL:FES2014b NONE     YN ORB:CoN CLK:CoN                    
*  2026  5 22  9  5  0.00000000
PG01  13260.593690 -20732.516337  -9889.627467    268.324861
PG02  17697.225365 -19319.391270   1801.234853    103.634614
PG03   6008.049767 -13387.141235 -22336.020073    454.031031
PG04   1790.738948 -24214.426291 -10527.354688     57.790257
PG05 -19838.785548   6751.284795  16164.604642   -233.259619
PG06 -16798.672556  -2625.691073 -20388.358278   -600.800807
PG07  -1472.492001 -18389.082664  19597.676311   -187.444081
PG08   9176.075637 -15920.336659  18809.819016    437.974603
PG09  -6995.600643 -25567.339453   -938.026398    747.147606
PG10  23077.700735  11459.062502   7403.402860   -583.501950
PG11 -21942.712132   9180.030562 -11684.417232   -332.134382
PG12  -8902.260358  13016.715824 -21658.466249   -607.515763
PG13  -8701.445698  13363.348515 -21316.805819    316.486820
PG14 -21160.957134 -13212.916731   9654.094989    746.902299
PG15  -6258.519364  17727.265503  18197.809222    413.684047
PG16  23670.732491   -488.099836  12067.708324    267.572753
PG17 -12672.250000 -19752.175035 -11806.973582   -140.196973
PG18   2908.744371  16651.043831  20465.142381   -346.531102
PG19 -15391.197436 -10751.031195 -19055.631161    700.358113
PG20 -12434.651737  10192.288408  21208.247048    164.969326
PG21 -24963.168708   -576.768866   9109.122395    413.542818
PG22 -23530.827748 -11425.407058   3816.477914      2.204807
PG23  13723.272522  15058.456633  17266.890219    650.220311
PG24 -14273.870552  21981.681259  -3381.052569     23.108871
PG25   5575.924940  16492.544523 -20507.618048    420.763626
PG26  26528.040167   3466.441841   1011.417669   -367.588681
PG27  14607.805306  -4325.849908  21388.001247      0.170355
PG28  16517.008873   3363.421504 -20523.661660   -522.543913
PG29   3634.443775  26143.925883  -2042.323331   -316.484438
PG30 -12857.441319  -9446.969246  21456.309314    231.467931
PG31  21373.193620  -5515.679789 -15272.942676   -147.518948
PG32  15259.772167  15185.574234 -15396.757389     67.372072
PR02  -6409.782881 -21237.076043 -12488.172099     12.196859
PR03 -15574.303356 -19223.097716   6146.102730     13.348998
PR04 -14626.110955  -6544.720379  19874.336229    356.606852
PR05  -6287.879441   9571.377292  22805.976506    168.447172
PR06   5725.290700  20785.112898  13653.384315    -19.731889
PR07  15489.333459  19429.905409  -5825.355242    121.703507
PR08  14689.223413   6079.069650 -19896.656588     -4.824083
PR09   -478.390203  11393.768488 -22793.654313    327.494856
PR11  25366.536955    -45.091461  -2556.956210     10.167037
PR12  18968.756415  -8116.182835  15032.099440     69.366039
PR14 -17079.439040  -7473.758244  17440.458001     32.607320
PR15 -25441.908651    271.745445   1941.018680     56.019045
PR16 -18893.200453   8023.401201 -15156.407601     49.510068
PR17  -6090.404691 -10762.539447 -22316.724707    297.939531
PR18 -13732.172700   5110.755973 -20883.838416    262.583641
PR19 -14913.841735  19285.620665  -7416.087977     48.289734
PR20  -6899.922613  22201.566227  10553.962033    232.657118
PR21   3677.417877  13735.778188  21161.227848   -309.799407
PR22  14564.285823  -6356.515178  19971.942878    126.918786
PR24   5597.176333 -22384.770636 -10890.430147   -166.902692
PR26  15654.735798   9139.110082 -17912.548928    -27.275397
PE02   6670.865233  19675.908974 -21092.118911     41.804515
PE03   1807.801162  29523.189431    677.902054    -18.511950
PE04 -13227.388959 -20404.467173  16899.860498   -154.056563
PE05 -10564.399890  21247.500664  17687.778283     36.198497
PE06 -16375.634745 -10653.804632  22229.606674   -274.419018
PE07  16778.272407   -469.763051 -24375.830491    -65.393306
PE08  13020.973799  20519.035773 -16882.819486   -150.211505
PE09 -16645.717490    360.901073  24475.129685   -298.303830
PE10 -21954.815197   -720.554484 -19848.647032   -793.650936
PE11 -25922.837175   8053.128670 -11838.014800   5082.659354
PE12 -15396.182068  -8370.663167 -23868.772732    -47.003851
PE13  25814.838921  -7721.392823  12238.362328    -55.308430
PE14  13213.449066 -18076.800856  19333.592862   3532.867037
PE15  14795.402596   8809.678065  24074.294013   -260.144260
PE16 -26649.864266  -3271.666231 -12479.154273    -33.603814
PE18 -17275.896407   4576.424526 -20469.543662   2806.815043
PE19  -1024.124591 -29553.571563  -1490.763872   2974.991459
PE21  14359.449873 -11131.452299  23369.157886   -744.104189
PE23  -6757.307312 -19591.723154  21136.258865    -35.835893
PE25 -14886.057890  10750.221832 -23209.831664     21.933071
PE26  21313.834310 -19468.481713  -6535.773715    311.349904
PE27  26926.661488   4160.690786  11578.376286   -995.319556
PE28  -8316.409515 -26809.943945   9387.446110    -45.222322
PE29  10612.159572 -21371.073035 -17519.541251   -208.513073
PE30  23797.544327  16495.864241  -6172.911023  -1070.640221
PE31 -23401.718601 -16771.031884   6880.317611   -142.947976
PE32   8288.075683  26828.265820  -9346.575737     16.383333
PE33   4904.082655 -19863.903057 -21390.886605    -15.833303
PE34  -4696.755642  19824.661801  21464.581006   -255.590288
PE36 -21517.006174  19306.355454   6390.476928   -568.993927
PC06 -11024.492619  19162.798806  35973.761146    290.190483
PC07 -25532.283580  30918.376924 -13319.062704    -24.604608
PC08  -9499.991497  36701.456182 -18032.012360   -234.074614
PC11   -665.582876  26134.066895   9777.957032   -677.428488
PC12   8208.154942  22721.945340  13957.573908    641.427306
PC13 -11914.057189 -13359.783937 -21419.800357   -922.768756
PC14   8517.378445 -13639.505398 -22810.856609   -346.735064
PC19  15759.001908  22413.190361   5181.754825   -941.195564
PC20   1828.044513  20463.677647  18862.016831   -908.765617
PC21  15116.221550  -5629.058993 -22760.442606   -853.025679
PC22  21898.888686  11726.452040 -12688.468335    453.949405
PC23 -25358.511086  -2593.645337  11357.293741   -459.479514
PC24  11233.848090 -16864.849369  19185.839043   -349.211642
PC25 -11906.454239 -13053.269589  21585.185546    861.271406
PC26  24749.966155 -11152.763492   6523.665272   -643.501269
PC27 -16976.893793  14614.670967 -16668.334615    635.856756
PC28 -16338.028289  -1891.687227 -22544.482460    520.001396
PC29   5720.459652  22445.733129  15551.684317    606.984765
PC30  -7229.781148  26962.513525   -226.011752    453.251817
PC31  16397.640465 -15355.529425  16516.081979    802.558595
PC32 -15203.085228   5605.877308  22732.320148   -916.000880
PC33 -15908.561367 -22344.532586  -5240.105200   -915.022218
PC34   7589.991972 -26835.504104    742.348630    951.198663
PC35  15967.612698   3540.791343  22585.126674   -396.079337
PC36  11129.851240  13523.132724 -21705.541779    279.447943
PC37 -25407.693708  10035.630801  -5614.646874   -946.604088
PC38  -6821.977200 -21491.826245 -16451.408086    138.774686
PC39  25153.367084   2991.940989 -11741.017990   -866.989692
PC41 -22036.811959 -12713.897188  11566.970082   -941.092722
PC42    308.545966 -19325.694546 -20115.362878   -892.538263
PJ02 -23766.834222  18488.308888 -24736.969957     -0.234978
PJ03 -29526.746008  30103.813442   8100.578018     -4.166730
PJ04 -25526.121620  26277.302043  26413.440631      0.552557
EOF
